MEAN_MOTION;ECCENTRICITY;INCLINATION;RA_OF_ASC_NODE;ARG_OF_PERICENTER;MEAN_ANOMALY;BSTAR;MEAN_MOTION_DOT;MEAN_MOTION_DDOT;TYPE
14.34217013;0.0002282;86.4012;21.1123;96.3054;263.8402;1.0612E-5;4.9E-7;0;Iridium
14.3421703;0.0002289;86.4012;20.8793;95.8421;264.3036;8.8803E-6;4.5E-7;0;Iridium
14.3421703;0.0002289;86.4012;20.8793;95.8421;264.3036;8.8803E-6;4.5E-7;0;Iridium
14.3421703;0.0002289;86.4012;20.8793;95.8421;264.3036;8.8803E-6;4.5E-7;0;Iridium
14.34217017;0.0002301;86.4013;20.7045;95.5255;264.6203;5.6934E-6;3.6E-7;0;Iridium
14.34217121;0.0002315;86.4014;20.4715;95.4135;264.7325;8.2494E-6;4.3E-7;0;Iridium
14.3421714;0.0002325;86.4014;20.2676;95.3363;264.8098;6.967E-6;3.9E-7;0;Iridium
14.34217212;0.000233;86.4015;20.0637;95.1305;265.0157;8.9564E-6;4.5E-7;0;Iridium
14.34217251;0.000234;86.4015;19.8889;95.0084;265.1379;9.2437E-6;4.6E-7;0;Iridium
14.34217303;0.0002344;86.4016;19.685;94.8786;265.2677;1.0603E-5;4.9E-7;0;Iridium
14.34217303;0.0002344;86.4016;19.685;94.8786;265.2677;1.0603E-5;4.9E-7;0;Iridium
14.34217442;0.0002363;86.4018;19.0733;94.3582;265.7884;1.2842E-5;5.6E-7;0;Iridium
14.34217457;0.0002368;86.4019;18.8402;94.1583;265.9883;1.292E-5;5.6E-7;0;Iridium
14.34217451;0.0002381;86.4019;18.6363;93.8807;266.2661;1.1577E-5;5.2E-7;0;Iridium
14.34217467;0.0002383;86.402;18.4325;93.7524;266.3944;1.2749E-5;5.5E-7;0;Iridium
14.34217458;0.0002398;86.402;18.1994;93.6167;266.5303;1.1092E-5;5.1E-7;0;Iridium
14.34217553;0.0002429;86.4021;17.7624;93.3337;266.8136;1.4334E-5;6.0E-7;0;Iridium
14.34217607;0.0002451;86.4021;17.5003;92.8606;267.287;1.5585E-5;6.3E-7;0;Iridium
14.34217682;0.0002455;86.4021;17.3838;92.7301;267.4176;1.8119E-5;7.1E-7;0;Iridium
14.34217744;0.0002469;86.4022;17.0926;92.2042;267.9437;1.9356E-5;7.4E-7;0;Iridium
14.34217761;0.0002472;86.4022;16.9469;92.0448;268.1031;1.7732E-5;6.9E-7;0;Iridium
14.34217748;0.000248;86.4022;16.6848;91.8213;268.3267;1.3232E-5;5.7E-7;0;Iridium
14.34217781;0.0002481;86.4022;16.5101;91.7301;268.4179;1.289E-5;5.6E-7;0;Iridium
14.34217812;0.0002487;86.4023;16.248;91.3888;268.7593;1.1386E-5;5.2E-7;0;Iridium
14.34217835;0.0002487;86.4023;16.1024;91.3232;268.8249;1.0393E-5;4.9E-7;0;Iridium
14.34217913;0.0002494;86.4023;15.8403;91.0948;269.0534;1.2498E-5;5.5E-7;0;Iridium
14.34217913;0.0002496;86.4023;15.8112;91.0314;269.1168;1.2079E-5;5.4E-7;0;Iridium
14.34217908;0.0002498;86.4023;15.6947;90.8725;269.2757;9.0759E-6;4.5E-7;0;Iridium
14.34218051;0.0002507;86.4023;15.4326;90.6171;269.5312;1.558E-5;6.3E-7;0;Iridium
14.34218055;0.0002509;86.4023;15.4035;90.499;269.6493;1.5804E-5;6.4E-7;0;Iridium
14.34218068;0.0002511;86.4024;15.2579;90.436;269.7124;1.3183E-5;5.7E-7;0;Iridium
14.34218068;0.0002511;86.4024;15.2579;90.436;269.7124;1.3183E-5;5.7E-7;0;Iridium
14.34218181;0.0002514;86.4024;14.8793;89.9565;270.1919;1.4312E-5;6.0E-7;0;Iridium
14.34218245;0.0002515;86.4024;14.7337;89.8848;270.2636;1.6359E-5;6.6E-7;0;Iridium
14.34218239;0.0002516;86.4024;14.5881;89.6312;270.5172;1.4187E-5;6.0E-7;0;Iridium
14.34218234;0.0002517;86.4025;14.4425;89.5607;270.5877;1.1893E-5;5.3E-7;0;Iridium
14.34218247;0.0002531;86.4025;14.1804;89.308;270.8406;9.5652E-6;4.7E-7;0;Iridium
14.3421828;0.0002541;86.4025;14.0057;89.1844;270.9643;1.0728E-5;5.0E-7;0;Iridium
14.34218246;0.0002547;86.4026;13.7436;88.5978;271.551;6.9322E-6;3.9E-7;0;Iridium
14.34218305;0.0002548;86.4026;13.598;88.5893;271.5595;9.2975E-6;4.6E-7;0;Iridium
14.34218351;0.0002555;86.4027;13.3359;88.0387;272.1101;1.0155E-5;4.8E-7;0;Iridium
14.34218419;0.0002552;86.4026;13.1903;88.1249;272.0239;1.3101E-5;5.6E-7;0;Iridium
14.34218464;0.0002559;86.4027;12.8991;87.5631;272.5857;1.3792E-5;5.8E-7;0;Iridium
14.34218544;0.0002559;86.4026;12.7535;87.6454;272.5035;1.7682E-5;6.9E-7;0;Iridium
14.34218633;0.0002562;86.4026;12.5206;87.2898;272.8591;2.1429E-5;8.0E-7;0;Iridium
14.34218658;0.0002562;86.4026;12.4623;87.2174;272.9315;2.2331E-5;8.2E-7;0;Iridium
14.34218688;0.0002562;86.4026;12.3458;87.1943;272.9546;2.2111E-5;8.2E-7;0;Iridium
14.34218756;0.0002564;86.4026;12.0837;86.7573;273.3916;2.3723E-5;8.6E-7;0;Iridium
14.34218772;0.0002563;86.4026;12.0546;86.714;273.4349;2.4421E-5;8.8E-7;0;Iridium
14.34218789;0.0002562;86.4026;11.9381;86.6124;273.5365;2.2553E-5;8.3E-7;0;Iridium
14.34218789;0.0002562;86.4026;11.9381;86.6124;273.5365;2.2553E-5;8.3E-7;0;Iridium
14.34218884;0.0002556;86.4025;11.5304;86.1516;273.9971;2.1796E-5;8.1E-7;0;Iridium
14.34218902;0.0002553;86.4025;11.3848;85.9724;274.1764;2.083E-5;7.8E-7;0;Iridium
14.34218899;0.0002553;86.4025;11.3557;85.8873;274.2615;1.9773E-5;7.5E-7;0;Iridium
14.34218953;0.0002555;86.4024;11.1227;85.6424;274.5063;1.8895E-5;7.3E-7;0;Iridium
14.34219042;0.0002549;86.4024;10.948;85.4001;274.7485;2.1609E-5;8.0E-7;0;Iridium
14.34219117;0.0002548;86.4023;10.715;85.0608;275.0879;2.0947E-5;7.8E-7;0;Iridium
14.34219168;0.0002541;86.4023;10.5112;84.8302;275.3183;2.0469E-5;7.7E-7;0;Iridium
14.34219168;0.0002541;86.4023;10.5112;84.8302;275.3183;2.0469E-5;7.7E-7;0;Iridium
14.3421935;0.0002532;86.4023;10.1035;84.4738;275.6747;2.2079E-5;8.2E-7;0;Iridium
14.3421942;0.0002531;86.4022;9.8705;84.2922;275.8562;2.0926E-5;7.8E-7;0;Iridium
14.34219585;0.0002528;86.4022;9.521;83.8295;276.3189;2.2641E-5;8.3E-7;0;Iridium
14.34219587;0.0002531;86.4022;9.4628;83.6941;276.4543;2.1294E-5;7.9E-7;0;Iridium
14.34219678;0.0002528;86.4021;9.0843;83.5149;276.6335;1.9594E-5;7.5E-7;0;Iridium
14.34219675;0.0002529;86.4021;9.0552;83.5649;276.5835;1.8873E-5;7.3E-7;0;Iridium
14.34219733;0.0002536;86.4021;8.6765;82.8988;277.2496;1.6609E-5;6.6E-7;0;Iridium
14.34219703;0.0002535;86.4021;8.6183;82.8547;277.2937;1.4157E-5;5.9E-7;0;Iridium
14.34219775;0.0002528;86.4021;8.4436;82.6641;277.4842;1.5846E-5;6.4E-7;0;Iridium
14.34219834;0.0002531;86.402;8.2106;82.2852;277.8631;1.5627E-5;6.4E-7;0;Iridium
14.34219894;0.0002524;86.402;8.0358;82.1154;278.0328;1.7137E-5;6.8E-7;0;Iridium
14.34219913;0.0002524;86.4019;7.8028;81.4871;278.661;1.5511E-5;6.3E-7;0;Iridium
14.3421597;0.0002516;86.4018;7.3945;82.8536;277.2946;1.3455E-5;5.7E-7;0;Iridium
14.34216284;0.0002522;86.4018;6.958;80.8095;279.3386;2.5092E-5;9.0E-7;0;Iridium
14.34216276;0.000251;86.4017;6.7832;80.6291;279.5188;1.7812E-5;7.0E-7;0;Iridium
14.34216317;0.0002501;86.4016;6.5501;80.5092;279.6386;1.7564E-5;6.9E-7;0;Iridium
14.34216417;0.0002486;86.4015;6.2006;79.9564;280.1913;2.0179E-5;7.6E-7;0;Iridium
14.34216404;0.0002484;86.4015;6.1423;79.8725;280.2751;1.76E-5;6.9E-7;0;Iridium
14.3421649;0.0002468;86.4014;5.7636;79.5009;280.6465;1.7833E-5;7.0E-7;0;Iridium
14.34216519;0.0002465;86.4014;5.7053;79.4433;280.7041;1.8558E-5;7.2E-7;0;Iridium
14.34216729;0.0002451;86.4012;5.3265;79.4104;280.7368;2.325E-5;8.5E-7;0;Iridium
14.34216729;0.0002449;86.4012;5.2974;79.4128;280.7343;2.2843E-5;8.4E-7;0;Iridium
14.34216838;0.0002432;86.4011;4.9478;79.0148;281.1321;2.2241E-5;8.2E-7;0;Iridium
14.34216838;0.0002432;86.4011;4.9478;79.0148;281.1321;2.2241E-5;8.2E-7;0;Iridium
14.34216837;0.0002431;86.4011;4.8895;79.019;281.1279;2.0627E-5;7.8E-7;0;Iridium
14.34216903;0.000242;86.4011;4.7147;78.8625;281.2842;2.1023E-5;7.9E-7;0;Iridium
14.34216993;0.0002396;86.4009;4.3069;78.4926;281.6538;1.8584E-5;7.2E-7;0;Iridium
14.34217008;0.0002395;86.4009;4.2777;78.3426;281.8038;1.8686E-5;7.2E-7;0;Iridium
14.34217023;0.0002393;86.4009;4.0447;78.5336;281.6128;1.6049E-5;6.5E-7;0;Iridium
14.34217084;0.0002384;86.4009;3.8407;78.7606;281.3858;1.6204E-5;6.5E-7;0;Iridium
14.3421711;0.0002387;86.4008;3.6659;79.1866;280.9598;1.4858E-5;6.1E-7;0;Iridium
14.34217079;0.0002391;86.4008;3.6077;78.8245;281.3219;1.3076E-5;5.6E-7;0;Iridium
14.34217153;0.0002375;86.4007;3.2872;78.1585;281.9877;1.3199E-5;5.7E-7;0;Iridium
14.34217137;0.0002375;86.4007;3.1998;78.0605;282.0857;1.1258E-5;5.1E-7;0;Iridium
14.34217194;0.0002364;86.4007;3.0249;77.9127;282.2334;1.2663E-5;5.5E-7;0;Iridium
14.34217235;0.0002357;86.4006;2.7919;77.7076;282.4384;1.2613E-5;5.5E-7;0;Iridium
14.34217335;0.0002339;86.4005;2.413;77.4946;282.6511;1.4274E-5;6.0E-7;0;Iridium
14.34217389;0.000233;86.4004;2.209;77.3634;282.7822;1.6271E-5;6.5E-7;0;Iridium
14.34217445;0.0002323;86.4004;1.9759;77.1605;282.9851;1.6702E-5;6.7E-7;0;Iridium
14.34217519;0.0002307;86.4002;1.6262;76.6551;283.4902;1.8205E-5;7.1E-7;0;Iridium
14.34217519;0.0002307;86.4002;1.6262;76.6551;283.4902;1.8205E-5;7.1E-7;0;Iridium
14.34217515;0.0002304;86.4002;1.5679;76.6781;283.4672;1.6958E-5;6.7E-7;0;Iridium
14.34217564;0.0002288;86.4001;1.3639;76.5898;283.5552;1.8297E-5;7.1E-7;0;Iridium
14.3421761;0.0002278;86.4001;1.1891;76.5523;283.5927;1.9238E-5;7.4E-7;0;Iridium
14.34217608;0.0002278;86.4;1.1599;76.5798;283.5652;1.8621E-5;7.2E-7;0;Iridium
14.34217672;0.0002264;86.3999;0.9559;76.4527;283.6921;2.0025E-5;7.6E-7;0;Iridium
14.34217734;0.0002258;86.3998;0.781;76.4175;283.7272;2.1528E-5;8.0E-7;0;Iridium
14.34217734;0.0002256;86.3998;0.7227;76.4887;283.656;2.0632E-5;7.8E-7;0;Iridium
14.34217838;0.0002236;86.3996;0.3729;76.1198;284.0247;2.183E-5;8.1E-7;0;Iridium
14.34217838;0.0002236;86.3996;0.3729;76.1198;284.0247;2.183E-5;8.1E-7;0;Iridium
14.34217839;0.0002235;86.3996;0.3146;76.1257;284.0187;2.0808E-5;7.8E-7;0;Iridium
14.34217987;0.0002212;86.3994;359.9065;75.8404;284.3037;2.186E-5;8.1E-7;0;Iridium
14.34218075;0.0002198;86.3994;359.7025;75.8034;284.3405;2.2852E-5;8.4E-7;0;Iridium
14.34218112;0.000219;86.3993;359.4693;76.0551;284.0888;2.0733E-5;7.8E-7;0;Iridium
14.34218255;0.0002178;86.3991;359.1195;76.2589;283.8849;2.1467E-5;8.0E-7;0;Iridium
14.34218267;0.0002176;86.3991;359.0612;76.2298;283.9139;2.0648E-5;7.8E-7;0;Iridium
14.34218299;0.0002164;86.399;358.8863;76.1055;284.0382;1.9315E-5;7.4E-7;0;Iridium
14.34218368;0.0002142;86.3989;358.4491;76.2982;283.8452;1.4967E-5;6.2E-7;0;Iridium
14.3421841;0.0002133;86.3988;358.2742;76.3618;283.7815;1.4515E-5;6.0E-7;0;Iridium
14.34218415;0.0002132;86.3988;358.2451;76.3879;283.7554;1.4094E-5;5.9E-7;0;Iridium
14.3421852;0.0002111;86.3987;357.8661;76.6943;283.4488;1.4314E-5;6.0E-7;0;Iridium
14.34218536;0.000211;86.3987;357.8078;76.6957;283.4474;1.4009E-5;5.9E-7;0;Iridium
